[
    {
        "Altitude(m)": 709779.5987537648,
        "Argument of Periapsis(deg)": 0.0034170363559881197,
        "Eccentricity": 0.0,
        "Inclination(deg)": 45.0,
        "Latitude(deg)": -24.846829188456322,
        "Longitude(deg)": 157.21331059426663,
        "Mean Anomaly(deg)": 216.18726499424426,
        "RAAN(deg)": 49.996774417562534,
        "Satellite Name": "Constellation 1 233",
        "Satellite Number": 233,
        "Semi-Major Axis(m)": 7083131.272910544,
        "Time(s)": 57
    },
    {
        "Altitude(m)": 709793.3750906378,
        "Argument of Periapsis(deg)": 0.003476984362233526,
        "Eccentricity": 0.0,
        "Inclination(deg)": 45.0,
        "Latitude(deg)": -24.885060795720403,
        "Longitude(deg)": 157.26113108380284,
        "Mean Anomaly(deg)": 216.2479661344942,
        "RAAN(deg)": 49.99671782839697,
        "Satellite Name": "Constellation 1 233",
        "Satellite Number": 233,
        "Semi-Major Axis(m)": 7083131.272910544,
        "Time(s)": 58
    },
    {
        "Altitude(m)": 709807.1539758252,
        "Argument of Periapsis(deg)": 0.003536932368478932,
        "Eccentricity": 0.0,
        "Inclination(deg)": 45.0,
        "Latitude(deg)": -24.92327404640724,
        "Longitude(deg)": 157.30898323500992,
        "Mean Anomaly(deg)": 216.30866727474404,
        "RAAN(deg)": 49.99666123923139,
        "Satellite Name": "Constellation 1 233",
        "Satellite Number": 233,
        "Semi-Major Axis(m)": 7083131.272910544,
        "Time(s)": 59
    },
    {
        "Altitude(m)": 709820.9353625353,
        "Argument of Periapsis(deg)": 0.003596880374724337,
        "Eccentricity": 0.0,
        "Inclination(deg)": 45.0,
        "Latitude(deg)": -24.961468898033676,
        "Longitude(deg)": 157.3568674442201,
        "Mean Anomaly(deg)": 216.36936841499397,
        "RAAN(deg)": 49.996604650065834,
        "Satellite Name": "Constellation 1 233",
        "Satellite Number": 233,
        "Semi-Major Axis(m)": 7083131.272910544,
        "Time(s)": 60
    },
    {
        "Altitude(m)": 709834.7192039451,
        "Argument of Periapsis(deg)": 0.0036568283809697427,
        "Eccentricity": 0.0,
        "Inclination(deg)": 45.0,
        "Latitude(deg)": -24.999645308054102,
        "Longitude(deg)": 157.4047836034801,
        "Mean Anomaly(deg)": 216.43006955524385,
        "RAAN(deg)": 49.99654806090026,
        "Satellite Name": "Constellation 1 233",
        "Satellite Number": 233,
        "Semi-Major Axis(m)": 7083131.272910544,
        "Time(s)": 61
    },
    {
        "Altitude(m)": 709848.5054532202,
        "Argument of Periapsis(deg)": 0.003716776387215149,
        "Eccentricity": 0.0,
        "Inclination(deg)": 45.0,
        "Latitude(deg)": -25.03780323386138,
        "Longitude(deg)": 157.45273177293916,
        "Mean Anomaly(deg)": 216.49077069549375,
        "RAAN(deg)": 49.99649147173469,
        "Satellite Name": "Constellation 1 233",
        "Satellite Number": 233,
        "Semi-Major Axis(m)": 7083131.272910544,
        "Time(s)": 62
    },
    {
        "Altitude(m)": 709862.2940635004,
        "Argument of Periapsis(deg)": 0.003776724393460554,
        "Eccentricity": 0.0,
        "Inclination(deg)": 45.0,
        "Latitude(deg)": -25.075942632786532,
        "Longitude(deg)": 157.50071201275153,
        "Mean Anomaly(deg)": 216.55147183574365,
        "RAAN(deg)": 49.99643488256912,
        "Satellite Name": "Constellation 1 233",
        "Satellite Number": 233,
        "Semi-Major Axis(m)": 7083131.272910544,
        "Time(s)": 63
    },
    {
        "Altitude(m)": 709876.0849878957,
        "Argument of Periapsis(deg)": 0.003836672399705959,
        "Eccentricity": 0.0,
        "Inclination(deg)": 45.0,
        "Latitude(deg)": -25.11406346209875,
        "Longitude(deg)": 157.54872438307646,
        "Mean Anomaly(deg)": 216.6121729759936,
        "RAAN(deg)": 49.996378293403545,
        "Satellite Name": "Constellation 1 233",
        "Satellite Number": 233,
        "Semi-Major Axis(m)": 7083131.272910544,
        "Time(s)": 64
    },
    {
        "Altitude(m)": 709889.8781795041,
        "Argument of Periapsis(deg)": 0.003896620405951365,
        "Eccentricity": 0.0,
        "Inclination(deg)": 45.0,
        "Latitude(deg)": -25.15216567900507,
        "Longitude(deg)": 157.59676894407755,
        "Mean Anomaly(deg)": 216.67287411624346,
        "RAAN(deg)": 49.996321704237985,
        "Satellite Name": "Constellation 1 233",
        "Satellite Number": 233,
        "Semi-Major Axis(m)": 7083131.272910544,
        "Time(s)": 65
    },
    {
        "Altitude(m)": 709903.6735913991,
        "Argument of Periapsis(deg)": 0.003956568412196771,
        "Eccentricity": 0.0,
        "Inclination(deg)": 45.0,
        "Latitude(deg)": -25.190249240650385,
        "Longitude(deg)": 157.64484575592266,
        "Mean Anomaly(deg)": 216.7335752564933,
        "RAAN(deg)": 49.99626511507241,
        "Satellite Name": "Constellation 1 233",
        "Satellite Number": 233,
        "Semi-Major Axis(m)": 7083131.272910544,
        "Time(s)": 66
    },
    {
        "Altitude(m)": 709917.4711766378,
        "Argument of Periapsis(deg)": 0.004016516418442176,
        "Eccentricity": 0.0,
        "Inclination(deg)": 45.0,
        "Latitude(deg)": -25.228314104117274,
        "Longitude(deg)": 157.69295471068682,
        "Mean Anomaly(deg)": 216.79427639674324,
        "RAAN(deg)": 49.99620852590684,
        "Satellite Name": "Constellation 1 233",
        "Satellite Number": 233,
        "Semi-Major Axis(m)": 7083131.272910544,
        "Time(s)": 67
    },
    {
        "Altitude(m)": 709931.2708882504,
        "Argument of Periapsis(deg)": 0.004076464424687581,
        "Eccentricity": 0.0,
        "Inclination(deg)": 45.0,
        "Latitude(deg)": -25.266360226426485,
        "Longitude(deg)": 157.7410962047393,
        "Mean Anomaly(deg)": 216.85497753699315,
        "RAAN(deg)": 49.99615193674128,
        "Satellite Name": "Constellation 1 233",
        "Satellite Number": 233,
        "Semi-Major Axis(m)": 7083131.272910544,
        "Time(s)": 68
    },
    {
        "Altitude(m)": 709945.0726792486,
        "Argument of Periapsis(deg)": 0.004136412430932987,
        "Eccentricity": 0.0,
        "Inclination(deg)": 45.0,
        "Latitude(deg)": -25.304387564535787,
        "Longitude(deg)": 157.78927013016212,
        "Mean Anomaly(deg)": 216.91567867724302,
        "RAAN(deg)": 49.996095347575704,
        "Satellite Name": "Constellation 1 233",
        "Satellite Number": 233,
        "Semi-Major Axis(m)": 7083131.272910544,
        "Time(s)": 69
    },
    {
        "Altitude(m)": 709958.8765026205,
        "Argument of Periapsis(deg)": 0.004196360437178394,
        "Eccentricity": 0.0,
        "Inclination(deg)": 45.0,
        "Latitude(deg)": -25.342396075340442,
        "Longitude(deg)": 157.8374765471369,
        "Mean Anomaly(deg)": 216.97637981749293,
        "RAAN(deg)": 49.99603875841014,
        "Satellite Name": "Constellation 1 233",
        "Satellite Number": 233,
        "Semi-Major Axis(m)": 7083131.272910544,
        "Time(s)": 70
    },
    {
        "Altitude(m)": 709972.6823113409,
        "Argument of Periapsis(deg)": 0.004256308443423799,
        "Eccentricity": 0.0,
        "Inclination(deg)": 45.0,
        "Latitude(deg)": -25.380385715673338,
        "Longitude(deg)": 157.88571551584843,
        "Mean Anomaly(deg)": 217.03708095774286,
        "RAAN(deg)": 49.99598216924456,
        "Satellite Name": "Constellation 1 233",
        "Satellite Number": 233,
        "Semi-Major Axis(m)": 7083131.272910544,
        "Time(s)": 71
    },
    {
        "Altitude(m)": 709986.4900583592,
        "Argument of Periapsis(deg)": 0.004316256449669204,
        "Eccentricity": 0.0,
        "Inclination(deg)": 45.0,
        "Latitude(deg)": -25.418356442304407,
        "Longitude(deg)": 157.93398709648363,
        "Mean Anomaly(deg)": 217.0977820979928,
        "RAAN(deg)": 49.995925580079,
        "Satellite Name": "Constellation 1 233",
        "Satellite Number": 233,
        "Semi-Major Axis(m)": 7083131.272910544,
        "Time(s)": 72
    },
    {
        "Altitude(m)": 710000.2996966094,
        "Argument of Periapsis(deg)": 0.00437620445591461,
        "Eccentricity": 0.0,
        "Inclination(deg)": 45.0,
        "Latitude(deg)": -25.45630821194077,
        "Longitude(deg)": 157.98229134923153,
        "Mean Anomaly(deg)": 217.1584832382426,
        "RAAN(deg)": 49.99586899091343,
        "Satellite Name": "Constellation 1 233",
        "Satellite Number": 233,
        "Semi-Major Axis(m)": 7083131.272910544,
        "Time(s)": 73
    },
    {
        "Altitude(m)": 710014.1111789992,
        "Argument of Periapsis(deg)": 0.004436152462160016,
        "Eccentricity": 0.0,
        "Inclination(deg)": 45.0,
        "Latitude(deg)": -25.49424098122661,
        "Longitude(deg)": 158.03062816618626,
        "Mean Anomaly(deg)": 217.21918437849257,
        "RAAN(deg)": 49.995812401747855,
        "Satellite Name": "Constellation 1 233",
        "Satellite Number": 233,
        "Semi-Major Axis(m)": 7083131.272910544,
        "Time(s)": 74
    },
    {
        "Altitude(m)": 710027.9244584236,
        "Argument of Periapsis(deg)": 0.0044961004684054215,
        "Eccentricity": 0.0,
        "Inclination(deg)": 45.0,
        "Latitude(deg)": -25.532154706743487,
        "Longitude(deg)": 158.07899794373384,
        "Mean Anomaly(deg)": 217.27988551874242,
        "RAAN(deg)": 49.99575581258229,
        "Satellite Name": "Constellation 1 233",
        "Satellite Number": 233,
        "Semi-Major Axis(m)": 7083131.272910544,
        "Time(s)": 75
    }
]